SEEDS II (CO-66)        
1 32791U 08021J   26068.92109284  .00023758  00000+0  84213-3 0  9995
2 32791  97.7519  62.3611 0001448 359.2618   0.8619 15.29097235972108
STARLINK-32691          
1 62501U 25003Q   26068.96206829  .00035087  00000+0  12776-2 0  9995
2 62501  43.0004 287.3890 0000589   6.0113 354.0745 15.27604405 66708
